{
  "type": "FeatureCollection",
  "features": [
    {
      "type": "Feature",
      "properties": {
        "norad_id": 42988,
        "name": "SKYSAT-C10",
        "group": "resource",
        "lat": 44.52533541594423,
        "lon": 101.11632753662728,
        "alt_km": 465.10414497662896,
        "timestamp": "2025-12-03T15:48:02.759189+00:00",
        "meta_object_name": "SKYSAT-C10",
        "meta_object_id": "2017-068B",
        "meta_epoch": "2025-12-02T22:21:40.538016",
        "meta_mean_motion": 15.31972305,
        "meta_eccentricity": 0.00054851,
        "meta_inclination": 97.4254,
        "meta_ra_of_asc_node": 107.758,
        "meta_arg_of_pericenter": 121.5944,
        "meta_mean_anomaly": 238.5834,
        "meta_ephemeris_type": 0,
        "meta_classification_type": "U",
        "meta_norad_cat_id": 42988,
        "meta_element_set_no": 999,
        "meta_rev_at_epoch": 45229,
        "meta_bstar": 0.00048523918,
        "meta_mean_motion_dot": 0.0001492,
        "meta_mean_motion_ddot": 0,
        "tle_line1": "1 42988U 17068B   25336.93171919  .00014920  00000+0  48524-3 0  9993",
        "tle_line2": "2 42988  97.4254 107.7580 0005485 121.5944 238.5834 15.31972305452291"
      },
      "geometry": {
        "type": "Point",
        "coordinates": [
          101.11632753662728,
          44.52533541594423
        ]
      }
    },
    {
      "type": "Feature",
      "properties": {
        "norad_id": 42989,
        "name": "SKYSAT-C9",
        "group": "resource",
        "lat": 55.41578446323255,
        "lon": -61.26342547302227,
        "alt_km": 446.44725647272844,
        "timestamp": "2025-12-03T15:48:02.759198+00:00",
        "meta_object_name": "SKYSAT-C9",
        "meta_object_id": "2017-068C",
        "meta_epoch": "2025-12-03T07:26:41.093376",
        "meta_mean_motion": 15.35663642,
        "meta_eccentricity": 0.00106559,
        "meta_inclination": 97.4181,
        "meta_ra_of_asc_node": 107.4928,
        "meta_arg_of_pericenter": 118.4676,
        "meta_mean_anomaly": 241.7642,
        "meta_ephemeris_type": 0,
        "meta_classification_type": "U",
        "meta_norad_cat_id": 42989,
        "meta_element_set_no": 999,
        "meta_rev_at_epoch": 45263,
        "meta_bstar": 0.00051581851,
        "meta_mean_motion_dot": 0.00017859,
        "meta_mean_motion_ddot": 0,
        "tle_line1": "1 42989U 17068C   25337.31019784  .00017859  00000+0  51582-3 0  9990",
        "tle_line2": "2 42989  97.4181 107.4928 0010655 118.4676 241.7642 15.35663642452632"
      },
      "geometry": {
        "type": "Point",
        "coordinates": [
          -61.26342547302227,
          55.41578446323255
        ]
      }
    },
    {
      "type": "Feature",
      "properties": {
        "norad_id": 42990,
        "name": "SKYSAT-C8",
        "group": "resource",
        "lat": -15.967616323053802,
        "lon": -74.51773197702155,
        "alt_km": 474.4420541196432,
        "timestamp": "2025-12-03T15:48:02.759207+00:00",
        "meta_object_name": "SKYSAT-C8",
        "meta_object_id": "2017-068D",
        "meta_epoch": "2025-12-03T08:40:49.286784",
        "meta_mean_motion": 15.32591193,
        "meta_eccentricity": 0.00021385,
        "meta_inclination": 97.4276,
        "meta_ra_of_asc_node": 107.3238,
        "meta_arg_of_pericenter": 20.8158,
        "meta_mean_anomaly": 339.317,
        "meta_ephemeris_type": 0,
        "meta_classification_type": "U",
        "meta_norad_cat_id": 42990,
        "meta_element_set_no": 999,
        "meta_rev_at_epoch": 45227,
        "meta_bstar": 0.00048010148,
        "meta_mean_motion_dot": 0.00015045,
        "meta_mean_motion_ddot": 0,
        "tle_line1": "1 42990U 17068D   25337.36168156  .00015045  00000+0  48010-3 0  9992",
        "tle_line2": "2 42990  97.4276 107.3238 0002138  20.8158 339.3170 15.32591193452278"
      },
      "geometry": {
        "type": "Point",
        "coordinates": [
          -74.51773197702155,
          -15.967616323053802
        ]
      }
    },
    {
      "type": "Feature",
      "properties": {
        "norad_id": 42991,
        "name": "SKYSAT-C7",
        "group": "resource",
        "lat": 69.36876577403778,
        "lon": 88.39473133915807,
        "alt_km": 457.8919107493466,
        "timestamp": "2025-12-03T15:48:02.759215+00:00",
        "meta_object_name": "SKYSAT-C7",
        "meta_object_id": "2017-068E",
        "meta_epoch": "2025-12-03T02:57:10.325088",
        "meta_mean_motion": 15.31993019,
        "meta_eccentricity": 0.00078615,
        "meta_inclination": 97.4281,
        "meta_ra_of_asc_node": 108.1332,
        "meta_arg_of_pericenter": 87.0209,
        "meta_mean_anomaly": 273.1932,
        "meta_ephemeris_type": 0,
        "meta_classification_type": "U",
        "meta_norad_cat_id": 42991,
        "meta_element_set_no": 999,
        "meta_rev_at_epoch": 45230,
        "meta_bstar": 0.00051571811,
        "meta_mean_motion_dot": 0.00015882,
        "meta_mean_motion_ddot": 0,
        "tle_line1": "1 42991U 17068E   25337.12303617  .00015882  00000+0  51572-3 0  9996",
        "tle_line2": "2 42991  97.4281 108.1332 0007861  87.0209 273.1932 15.31993019452306"
      },
      "geometry": {
        "type": "Point",
        "coordinates": [
          88.39473133915807,
          69.36876577403778
        ]
      }
    },
    {
      "type": "Feature",
      "properties": {
        "norad_id": 42992,
        "name": "SKYSAT-C6",
        "group": "resource",
        "lat": -34.59960678493918,
        "lon": -76.05030045018582,
        "alt_km": 479.601625117758,
        "timestamp": "2025-12-03T15:48:02.759224+00:00",
        "meta_object_name": "SKYSAT-C6",
        "meta_object_id": "2017-068F",
        "meta_epoch": "2025-12-03T08:35:31.690752",
        "meta_mean_motion": 15.31177883,
        "meta_eccentricity": 0.00051465,
        "meta_inclination": 97.4315,
        "meta_ra_of_asc_node": 108.8149,
        "meta_arg_of_pericenter": 109.2046,
        "meta_mean_anomaly": 250.9752,
        "meta_ephemeris_type": 0,
        "meta_classification_type": "U",
        "meta_norad_cat_id": 42992,
        "meta_element_set_no": 999,
        "meta_rev_at_epoch": 45232,
        "meta_bstar": 0.0004677697,
        "meta_mean_motion_dot": 0.00014026,
        "meta_mean_motion_ddot": 0,
        "tle_line1": "1 42992U 17068F   25337.35800568  .00014026  00000+0  46777-3 0  9999",
        "tle_line2": "2 42992  97.4315 108.8149 0005146 109.2046 250.9752 15.31177883452326"
      },
      "geometry": {
        "type": "Point",
        "coordinates": [
          -76.05030045018582,
          -34.59960678493918
        ]
      }
    },
    {
      "type": "Feature",
      "properties": {
        "norad_id": 43111,
        "name": "CARTOSAT-2F",
        "group": "resource",
        "lat": -3.238439053182905,
        "lon": 35.86585898798523,
        "alt_km": 512.0376208420912,
        "timestamp": "2025-12-03T15:48:02.759233+00:00",
        "meta_object_name": "CARTOSAT-2F",
        "meta_object_id": "2018-004A",
        "meta_epoch": "2025-12-03T07:54:43.006752",
        "meta_mean_motion": 15.19349192,
        "meta_eccentricity": 0.00010952,
        "meta_inclination": 97.4331,
        "meta_ra_of_asc_node": 35.1191,
        "meta_arg_of_pericenter": 191.5703,
        "meta_mean_anomaly": 168.5506,
        "meta_ephemeris_type": 0,
        "meta_classification_type": "U",
        "meta_norad_cat_id": 43111,
        "meta_element_set_no": 999,
        "meta_rev_at_epoch": 43759,
        "meta_bstar": 7.2819746e-05,
        "meta_mean_motion_dot": 1.471e-05,
        "meta_mean_motion_ddot": 0,
        "tle_line1": "1 43111U 18004A   25337.32966443  .00001471  00000+0  72820-4 0  9995",
        "tle_line2": "2 43111  97.4331  35.1191 0001095 191.5703 168.5506 15.19349192437593"
      },
      "geometry": {
        "type": "Point",
        "coordinates": [
          35.86585898798523,
          -3.238439053182905
        ]
      }
    },
    {
      "type": "Feature",
      "properties": {
        "norad_id": 43259,
        "name": "GAOFEN-1 02",
        "group": "resource",
        "lat": 76.18692795458085,
        "lon": 0.13775871605063766,
        "alt_km": 634.2568080986575,
        "timestamp": "2025-12-03T15:48:02.759242+00:00",
        "meta_object_name": "GAOFEN-1 02",
        "meta_object_id": "2018-031A",
        "meta_epoch": "2025-12-03T07:18:45.945216",
        "meta_mean_motion": 14.76447996,
        "meta_eccentricity": 0.00012962,
        "meta_inclination": 98.082,
        "meta_ra_of_asc_node": 35.0898,
        "meta_arg_of_pericenter": 258.6198,
        "meta_mean_anomaly": 101.4866,
        "meta_ephemeris_type": 0,
        "meta_classification_type": "U",
        "meta_norad_cat_id": 43259,
        "meta_element_set_no": 999,
        "meta_rev_at_epoch": 41379,
        "meta_bstar": 0.00021870579,
        "meta_mean_motion_dot": 1.47e-05,
        "meta_mean_motion_ddot": 0,
        "tle_line1": "1 43259U 18031A   25337.30469844  .00001470  00000+0  21871-3 0  9997",
        "tle_line2": "2 43259  98.0820  35.0898 0001296 258.6198 101.4866 14.76447996413799"
      },
      "geometry": {
        "type": "Point",
        "coordinates": [
          0.13775871605063766,
          76.18692795458085
        ]
      }
    }
  ]
}